ONEWEB-0205             
1 48226U 21031S   25261.24502514  .00000006  00000+0 -17926-4 0  9993
2 48226  87.9082 343.8419 0002043 104.3712 255.7644 13.14503908212548
ONEWEB-0206             
1 48227U 21031T   25261.21807197  .00000226  00000+0  57470-3 0  9996
2 48227  87.9089 343.8305 0001964 100.6254 259.5097 13.14503909212490
ONEWEB-0182             
1 48228U 21031U   25261.21331792  .00000206  00000+0  52151-3 0  9999
2 48228  87.9080 343.8742 0002072  96.0907 264.0459 13.14503911212701
ONEWEB-0186             
1 48229U 21031V   25261.22441515  .00000247  00000+0  63188-3 0  9993
2 48229  87.9090 343.8353 0001948 103.0054 257.1293 13.14504398212657
ONEWEB-0181             
1 48230U 21031W   25261.20221556  .00000017  00000+0  10996-4 0  9999
2 48230  87.9071 343.9092 0001876 106.2683 253.8653 13.14503045212507
ONEWEB-0188             
1 48231U 21031X   25260.78355743 -.00000091  00000+0 -27880-3 0  9991
2 48231  87.9085 343.9855 0001921 100.4147 259.7199 13.14503970212352
ONEWEB-0220             
1 48232U 21031Y   25261.20380147  .00000057  00000+0  11987-3 0  9997
2 48232  87.9086 343.8407 0002121 103.3211 256.8155 13.14503421212679
ONEWEB-0165             
1 48233U 21031Z   25261.23234050  .00000179  00000+0  44853-3 0  9995
2 48233  87.9070 343.8750 0001978 105.5106 254.6242 13.14502643212634
